name,description,url,position,street,city,county,state,country,postal_code,phone,email
Buen Pastor,,,"18.3096743,-66.0834995",,,,,,,,
Calvary Church of the Nazarene,,,"18.39405,-66.009781",,,,,,,,
Capilla de Anones,,,"18.2799536,-66.2446126",,,,,,,,
Capilla de la Florecita,,,"18.2385646,-67.1229574",,,,,,,,
Capilla de la Milagrosa,,,"18.169401,-67.1079575",,,,,,,,
Capilla de las Tunas,,,"18.0527392,-67.12379",,,,,,,,
Capilla de la Virgen Inmaculada,,,"18.2007902,-66.0829436",,,,,,,,
Capilla del Calvario (historical),,,"18.4691115,-66.1212775",,,,,,,,
Capilla del Carmen,,,"18.0755157,-67.1835131",,,,,,,,
Capilla del Perpetuo Socorro,,,"18.0463513,-67.0118444",,,,,,,,
Capilla del Pozo de la Virgen,,,"18.094683,-66.9451771",,,,,,,,
Capilla del Sagrada Corazón de Jesus,,,"18.1027384,-66.88851",,,,,,,,
Capilla del Sagrado Corazón,,,"18.1846799,-66.0857214",,,,,,,,
Capilla de Paris,,,"18.0374623,-67.1029563",,,,,,,,
Capilla de San Alfonso,,,"18.1513481,-66.0387761",,,,,,,,
Capilla de San Geraldo,,,"18.0260755,-66.1307215",,,,,,,,
Capilla de San José,,,"18.170236,-66.4398934",,,,,,,,
Capilla de San Juan (historical),,,"18.4657784,-66.1182219",,,,,,,,
Capilla de Santa Ana,,,"18.1788449,-67.1179574",,,,,,,,
Capilla de Santa Marta,,,"18.0571849,-66.2404454",,,,,,,,
Capilla de Santa Rosa,,,"18.1510694,-66.9262884",,,,,,,,
Capilla Fátima,,,"18.3955044,-66.3471139",,,,,,,,
Capilla La Virgen De Alta Gracia,,,"18.3249492,-67.1835144",,,,,,,,
Capilla La Virgen del Buen Consejo,,,"18.3391156,-67.1390694",,,,,,,,
Capilla La Virgen de Monserrate,,,"18.3368934,-67.1590697",,,,,,,,
Capilla Mal Paso,,,"18.3632812,-67.1629586",,,,,,,,
Capilla San Francisco,,,"18.2410663,-66.664618",,,,,,,,
Capilla San José,,,"18.3227269,-67.2051813",,,,,,,,
Capilla San Patricio,,,"18.2207893,-66.0798882",,,,,,,,
Capilla Santa Rita,,,"18.3330046,-67.1718476",,,,,,,,
Capilla Umberto Vázquez,,,"18.0946825,-67.0193449",,,,,,,,
Capillo de Cristo,,,"18.4635563,-66.1176664",,,,,,,,
Catedral de San German de Auxerre,,,"18.0810719,-67.044623",,,,,,,,
Catedral de San Juan,,,"18.4641118,-66.1182219",,,,,,,,
Catedral San Felipe,,,"18.4730006,-66.7151751",,,,,,,,
Cathedral of Caguas,,,"18.2343995,-66.0340541",,,,,,,,
Cathedral of Our Lady of Guadalupe,,,"18.01191,-66.6143394",,,,,,,,
Chapel of El Santo Christo de la Salud,,,"18.4677227,-66.1179441",,,,,,,,
Chapel of Santa Barbara,,,"18.4674449,-66.1112774",,,,,,,,
Christian Community Church,,,"18.37678,-66.094167",,,,,,,,
Concepcion Church,,,"18.463834,-66.1182219",,,,,,,,
Convento de los Dominicos,,,"18.4677227,-66.1173886",,,,,,,,
Convento de Santo Tomas de Aquino,,,"18.4682783,-66.1184997",,,,,,,,
Convento Hermanos de Jesus,,,"18.4146698,-66.1871116",,,,,,,,
Convento Siervas de Maria,,,"18.1335708,-66.2582236",,,,,,,,
Detensores de la Fe,,,"18.4671672,-66.1157218",,,,,,,,
Dios de Pentecostal,,,"18.4668894,-66.1171108",,,,,,,,
Dulce Nombre de Jesus,,,"18.1502382,-65.8262736",,,,,,,,
El Hombre de la Cana,,,"18.4457798,-66.3935034",,,,,,,,
Ermita de San Sebastian (historical),,,"18.0835717,-67.0468452",,,,,,,,
Hugh Memorial Presbyterian Church,,,"18.46453,-66.118305",,,,,,,,
Iglesia Apóstoles de Cristo,,,"18.2555104,-66.2062789",,,,,,,,
Iglesia Arenales Altos,,,"18.4546668,-67.015735",,,,,,,,
Iglesia Ascensíon,,,"18.3582835,-66.4468374",,,,,,,,
Iglesia Capilla Virgen del Carmen,,,"18.3141181,-66.0290543",,,,,,,,
Iglesia Ceiba Alta,,,"18.4538334,-67.0882362",,,,,,,,
Iglesia Corazón de Jesus,,,"18.1255161,-66.0059976",,,,,,,,
Iglesia Cristo Rey,,,"18.3796714,-66.2076676",,,,,,,,
Iglesia de Cristo,,,"18.4371687,-66.1535",,,,,,,,
Iglesia De Dajaos,,,"18.3005084,-66.1885008",,,,,,,,
Iglesia de Dios,,,"18.4393911,-66.447393",,,,,,,,
Iglesia de la Inmaculada Concepción,,,"18.3152299,-66.3579474",,,,,,,,
Iglesia de la Inmaculada Concepcóon,,,"18.2221782,-66.673507",,,,,,,,
Iglesia de La Placita,,,"18.2480106,-65.8987748",,,,,,,,
Iglesia de La Virgen del Carmen,,,"18.1960679,-66.798231",,,,,,,,
Iglesia de la Virgen del Rosario,,,"18.3971695,-67.0060121",,,,,,,,
Iglesia del Carmen,,,"18.3588391,-66.1637782",,,,,,,,
Iglesia del Niño Jesus,,,"18.3610613,-66.4115592",,,,,,,,
Iglesia del Sagrado Corazón,,,"18.4016152,-66.3129469",,,,,,,,
Iglesia de San José,,,"18.1638457,-67.0921241",,,,,,,,
Iglesia de San Patricio,,,"18.1524592,-66.637673",,,,,,,,
Iglesia de San Patrico,,,"18.4335576,-65.8796089",,,,,,,,
Iglesia El Calvario,,,"18.4338351,-66.8951776",,,,,,,,
Iglesia El Paraíso,,,"18.0913501,-66.8307315",,,,,,,,
Iglesia Ernesto Memorial,,,"18.4332798,-66.8540654",,,,,,,,
Iglesia Evangélica,,,"18.3960595,-66.2043341",,,,,,,,
Iglesia Evangélica Menonita,,,"18.1396819,-66.0834989",,,,,,,,
Iglesia Evangelica Unida,,,"18.0182982,-66.7896197",,,,,,,,
Iglesia Evangelica Unidad de Puerto Rico,,,"18.0249649,-66.6018393",,,,,,,,
Iglesia Guayabo Dulce,,,"18.2149558,-66.8171202",,,,,,,,
Iglesia Imaculada Concepcion de Guayanilla,,,"18.0185759,-66.791842",,,,,,,,
Iglesia La Milagrosa,,,"18.3457837,-66.0737772",,,,,,,,
Iglesia la Virgen del Rosario,,,"18.2963419,-66.2126678",,,,,,,,
Iglesia Metodista,,,"18.4668894,-66.1182219",,,,,,,,
Iglesia Metodista Unida,,,"18.0141321,-66.6154505",,,,,,,,
Iglesia Miraflores,,,"18.2074558,-66.9173994",,,,,,,,
Iglesia Monserrate,,,"18.1380147,-66.8487874",,,,,,,,
Iglesia Pentecostal,,,"18.2105107,-67.0421234",,,,,,,,
Iglesia Protestante,,,"18.1713464,-66.867121",,,,,,,,
Iglesia Reconciliación,,,"18.0655182,-66.6707292",,,,,,,,
Iglesia Sagrado Corazón,,,"18.2982861,-66.1168333",,,,,,,,
Iglesia San Andrés,,,"18.096628,-66.6596179",,,,,,,,
Iglesia San Antonio,,,"18.0480189,-66.6873962",,,,,,,,
Iglesia San Antonio de Padua,,,"18.3774484,-66.9287887",,,,,,,,
Iglesia San Augustin,,,"18.4657784,-66.1026662",,,,,,,,
Iglesia San Francisco,,,"18.4663338,-66.1132218",,,,,,,,
Iglesia San José,,,"18.2882862,-66.079055",,,,,,,,
Iglesia San José de la Montaña,,,"18.1307934,-66.075721",,,,,,,,
Iglesia San Marcos,,,"18.0385752,-66.6446177",,,,,,,,
Iglesia San Martín Porres,,,"18.2552326,-66.2240568",,,,,,,,
Iglesia San Mateo,,,"18.0627404,-66.7101744",,,,,,,,
Iglesia San Pascual,,,"18.3138405,-66.689063",,,,,,,,
Iglesia San Pedro,,,"18.1010723,-66.5071166",,,,,,,,
Iglesia San Rafael Arcangel,,,"18.474944,-66.938512",,,,,,,,
Iglesia Santa Ana,,,"18.1496805,-66.9326774",,,,,,,,
Iglesia Santa Margarita,,,"18.1744017,-66.9173994",,,,,,,,
Iglesia Santa María del Monte Carmelo,,,"18.2766201,-66.6512847",,,,,,,,
Iglesia Santa Maria Reina,,,"18.0030216,-66.6201728",,,,,,,,
Iglesia Santa Rosa,,,"18.0780165,-67.0285116",,,,,,,,
Iglesia Santa Teresita,,,"18.1891225,-67.0832351",,,,,,,,
Iglesia Virgen del Carmen,,,"18.4452229,-66.977401",,,,,,,,
Iglesia Virgen María,,,"18.1905123,-66.8482318",,,,,,,,
Isabel La Catolica,,,"18.3832798,-67.2046254",,,,,,,,
La Hermosa Temple of the Defenders of the Christian Faith,,,"18.46722,-66.115333",,,,,,,,
La Piedad Catholic Church,,,"18.4446679,-66.0326656",,,,,,,,
Misionario Evangélico,,,"18.2999525,-66.0934997",,,,,,,,
Misión Noel,,,"18.1555146,-66.5246166",,,,,,,,
Notre Senora del Rosario,,,"18.212458,-65.7357174",,,,,,,,
Nuestra Senora de la Asuncion,,,"18.1127384,-66.1657222",,,,,,,,
Nuestra Senora de Providencia,,,"18.4655006,-66.0993328",,,,,,,,
Pedro Flores,,,"18.2127358,-65.7348841",,,,,,,,
Porta Coeli Chapel,,,"18.0821829,-67.0410118",,,,,,,,
Presbyterian Church of San Juan,,,"18.4646673,-66.1184997",,,,,,,,
Saint Anthony de Padua Church,,,"18.5010537,-67.0226796",,,,,,,,
Saint Johns Episcopal Cathedral,,,"18.44849,-66.071051",,,,,,,,
Saint Johns Episcopal Church,,,"18.4668894,-66.1179441",,,,,,,,
San Antonio de Padua Church,,,"18.1860688,-66.3060023",,,,,,,,
Sancutario de Nuestra Senora de Monserrate,,,"18.1407909,-67.1268463",,,,,,,,
San Francisco Church,,,"18.4663338,-66.1134996",,,,,,,,
San Ignacio de Loyola Roman Catholic Church,,,"18.37707,-66.085911",,,,,,,,
San Isidro Labrador Church,,,"18.0071885,-65.8990511",,,,,,,,
San Jorge Catholic Church,,,"18.4502232,-66.0618324",,,,,,,,
San Jose Church,,,"18.1388483,-66.2665571",,,,,,,,
San Juan Bautista,,,"18.1802346,-66.9793445",,,,,,,,
San Miguel Arcangel Church,,,"18.2655095,-66.6990629",,,,,,,,
San Sebastian Church,,,"18.3366166,-66.990456",,,,,,,,
Santa Ana Church,,,"18.4646673,-66.115444",,,,,,,,
Stella Maris Catholic Church,,,"18.4538342,-66.068777",,,,,,,,
Temple Beth Shalom Synagogue,,,"18.451612,-66.0615546",,,,,,,,
Union Church,,,"18.451612,-66.0429433",,,,,,,,
Union Church of San Juan,,,"18.45208,-66.042312",,,,,,,,
